OBJECT_NAME,OBJECT_ID,EPOCH,MEAN_MOTION,ECCENTRICITY,INCLINATION,RA_OF_ASC_NODE,ARG_OF_PERICENTER,MEAN_ANOMALY,EPHEMERIS_TYPE,CLASSIFICATION_TYPE,NORAD_CAT_ID,ELEMENT_SET_NO,REV_AT_EPOCH,BSTAR,MEAN_MOTION_DOT,MEAN_MOTION_DDOT
FENGYUN 3D,2017-072A,2026-07-02T20:43:02.308224,14.19741350,.0002128,99.0133,158.5694,36.9011,323.2311,0,U,43010,999,44721,-.8255E-4,-.221E-5,0
NOAA 20 (JPSS-1),2017-073A,2026-07-02T18:57:59.226048,14.19514585,.0000882,98.7772,123.1143,132.4848,227.6402,0,U,43013,999,44668,.56951E-4,.76E-6,0
GOES 17,2018-022A,2026-07-02T15:16:05.946816,1.00271770,.0000734,0.9741,85.4682,41.6240,293.1097,0,U,43226,999,3057,0,-.172E-5,0
SENTINEL-3B,2018-039A,2026-07-02T11:28:21.061056,14.26739163,.0000853,98.6244,250.7906,115.3560,244.7708,0,U,43437,999,42630,.76068E-4,.14E-5,0
FENGYUN 2H,2018-050A,2026-07-02T22:01:48.374400,1.00269448,.0001783,3.0700,78.8964,121.4669,130.3322,0,U,43491,999,2959,0,-.119E-5,0
METOP-C,2018-087A,2026-07-02T18:20:45.543264,14.21516397,.0002155,98.6637,243.0828,109.5138,250.6273,0,U,43689,999,39704,.81723E-4,.135E-5,0
GEO-KOMPSAT-2A,2018-100A,2026-07-02T19:57:00.762912,1.00268738,.0002256,0.0451,169.6912,284.8102,253.8621,0,U,43823,999,2778,0,-.333E-5,0
METEOR-M2 2,2019-038A,2026-07-02T21:49:44.555808,14.24369324,.0001397,98.9148,171.4273,25.1865,334.9381,0,U,44387,999,36353,-.64877E-4,-.196E-5,0
ARKTIKA-M 1,2021-016A,2026-06-29T22:50:46.732128,2.00617895,.72928178,63.2520,55.7907,269.9910,14.5481,0,U,47719,999,3904,0,-.281E-5,0
FENGYUN 3E,2021-062A,2026-07-02T20:17:18.121632,14.19905807,.0002664,98.7490,187.0786,60.8884,299.2558,0,U,49008,999,25880,.7425E-4,.114E-5,0
GOES 18,2022-021A,2026-07-02T16:45:10.927296,1.00271499,.0000551,0.0153,195.2020,306.4734,253.3476,0,U,51850,999,674,0,.107E-5,0
NOAA 21 (JPSS-2),2022-150A,2026-07-02T19:44:47.046336,14.19539315,.0002467,98.7060,122.3492,126.4917,233.6487,0,U,54234,999,18876,.47932E-4,.58E-6,0
METEOSAT-12 (MTG-I1),2022-170C,2026-07-02T17:24:08.004096,1.00276285,.0003602,0.7551,25.3200,74.6137,81.6181,0,U,54743,999,1313,0,.4E-7,0
TIANMU-1 03,2023-039A,2026-07-02T19:52:10.719840,15.47731703,.0003615,97.5236,358.4139,59.2341,300.9265,0,U,55973,999,18325,.31975E-3,.16476E-3,0
TIANMU-1 04,2023-039B,2026-07-02T19:28:13.363392,15.48345742,.0004048,97.5174,357.5516,53.5594,306.6029,0,U,55974,999,18326,.30855E-3,.16239E-3,0
TIANMU-1 05,2023-039C,2026-07-02T19:25:34.498848,15.47656911,.0003724,97.5220,358.0038,76.9935,283.1730,0,U,55975,999,18323,.30856E-3,.15854E-3,0
TIANMU-1 06,2023-039D,2026-07-02T19:34:30.833760,15.48245266,.0003953,97.5226,358.6619,71.9383,288.2298,0,U,55976,999,18326,.31076E-3,.16299E-3,0
FENGYUN 3G,2023-055A,2026-07-02T19:21:18.023040,15.53321812,.0007319,49.9922,265.5037,1.7685,358.3307,0,U,56232,999,18243,.36147E-3,.22887E-3,0
METEOR-M2 3,2023-091A,2026-07-02T20:05:35.745792,14.24048063,.0005013,98.6080,238.4948,117.9649,242.2037,0,U,57166,999,15674,.17327E-4,-.3E-7,0
TIANMU-1 07,2023-101A,2026-07-02T20:42:49.443264,15.29991543,.0004267,97.2579,234.1723,89.9627,270.2103,0,U,57399,999,16404,.24785E-3,.7123E-4,0
TIANMU-1 08,2023-101B,2026-07-02T19:54:43.591680,15.29995308,.0005486,97.2569,233.9081,77.7424,282.4431,0,U,57400,999,16403,.24723E-3,.7107E-4,0
TIANMU-1 09,2023-101C,2026-07-02T21:04:31.834272,15.30032991,.0004883,97.2526,233.3632,92.2270,267.9530,0,U,57401,999,16404,.26126E-3,.7524E-4,0
TIANMU-1 10,2023-101D,2026-07-02T20:18:21.056256,15.30004579,.0006336,97.2606,234.3984,86.3312,273.8653,0,U,57402,999,16403,.24456E-3,.7033E-4,0
FENGYUN 3F,2023-111A,2026-07-02T19:53:36.496032,14.19941745,.0001483,98.6831,253.5458,82.5903,277.5441,0,U,57490,999,15108,.47653E-4,.58E-6,0
ARKTIKA-M 2,2023-198A,2026-06-29T17:20:14.637696,2.00610643,.69058771,63.2199,152.9641,267.3845,18.7575,0,U,58584,999,1857,0,.148E-5,0
TIANMU-1 11,2023-205A,2026-07-02T20:17:32.198784,15.27156789,.0007198,97.3438,205.1575,317.3851,42.6829,0,U,58645,999,13991,.23211E-3,.6111E-4,0
TIANMU-1 12,2023-205B,2026-07-02T10:09:37.320768,15.27051163,.0005309,97.3426,204.4940,296.9950,63.0746,0,U,58646,999,13983,.25584E-3,.672E-4,0
TIANMU-1 13,2023-205C,2026-07-02T20:23:52.560960,15.26977879,.0004974,97.3454,205.1894,269.0173,91.0496,0,U,58647,999,13989,.23998E-3,.6284E-4,0
TIANMU-1 14,2023-205D,2026-07-02T20:01:54.810624,15.27022058,.000576,97.3391,204.3439,276.5011,83.5572,0,U,58648,999,13989,.23289E-3,.6105E-4,0
TIANMU-1 19,2023-208A,2026-07-02T20:03:01.183968,15.31812157,.0003635,97.4523,300.2180,251.1748,108.9099,0,U,58660,999,13972,.29354E-3,.894E-4,0
TIANMU-1 20,2023-208B,2026-07-02T20:39:57.492576,15.33001652,.0005604,97.4465,300.8955,264.3956,95.6647,0,U,58661,999,13982,.287E-3,.9075E-4,0
