FENGYUN 3D              
1 43010U 17072A   26183.86322116 -.00000221  00000+0 -82550-4 0  9994
2 43010  99.0133 158.5694 0002128  36.9011 323.2311 14.19741350447214
NOAA 20 (JPSS-1)        
1 43013U 17073A   26183.79026882  .00000076  00000+0  56951-4 0  9993
2 43013  98.7772 123.1143 0000882 132.4848 227.6402 14.19514585446680
GOES 17                 
1 43226U 18022A   26183.63617994 -.00000172  00000+0  00000+0 0  9994
2 43226   0.9741  85.4682 0000734  41.6240 293.1097  1.00271770 30575
SENTINEL-3B             
1 43437U 18039A   26183.47802154  .00000140  00000+0  76068-4 0  9998
2 43437  98.6244 250.7906 0000853 115.3560 244.7708 14.26739163426301
FENGYUN 2H              
1 43491U 18050A   26183.91792100 -.00000119  00000+0  00000+0 0  9994
2 43491   3.0700  78.8964 0001783 121.4669 130.3322  1.00269448 29596
METOP-C                 
1 43689U 18087A   26183.76441601  .00000135  00000+0  81723-4 0  9996
2 43689  98.6637 243.0828 0002155 109.5138 250.6273 14.21516397397045
GEO-KOMPSAT-2A          
1 43823U 18100A   26183.83125883 -.00000333  00000+0  00000+0 0  9996
2 43823   0.0451 169.6912 0002256 284.8102 253.8621  1.00268738 27782
METEOR-M2 2             
1 44387U 19038A   26183.90954347 -.00000196  00000+0 -64877-4 0  9991
2 44387  98.9148 171.4273 0001397  25.1865 334.9381 14.24369324363538
ARKTIKA-M 1             
1 47719U 21016A   26180.95192977 -.00000281  00000+0  00000+0 0  9994
2 47719  63.2520  55.7907 7292817 269.9910  14.5481  2.00617895 39040
FENGYUN 3E              
1 49008U 21062A   26183.84534863  .00000114  00000+0  74250-4 0  9990
2 49008  98.7490 187.0786 0002664  60.8884 299.2558 14.19905807258806
GOES 18                 
1 51850U 22021A   26183.69804314  .00000107  00000+0  00000+0 0  9997
2 51850   0.0153 195.2020 0000551 306.4734 253.3476  1.00271499  6747
NOAA 21 (JPSS-2)        
1 54234U 22150A   26183.82276674  .00000058  00000+0  47932-4 0  9991
2 54234  98.7060 122.3492 0002467 126.4917 233.6487 14.19539315188766
METEOSAT-12 (MTG-I1)    
1 54743U 22170C   26183.72509264  .00000004  00000+0  00000+0 0  9992
2 54743   0.7551  25.3200 0003602  74.6137  81.6181  1.00276285 13138
TIANMU-1 03             
1 55973U 23039A   26183.82790185  .00016476  00000+0  31975-3 0  9997
2 55973  97.5236 358.4139 0003615  59.2341 300.9265 15.47731703183257
TIANMU-1 04             
1 55974U 23039B   26183.81126578  .00016239  00000+0  30855-3 0  9999
2 55974  97.5174 357.5516 0004048  53.5594 306.6029 15.48345742183263
TIANMU-1 05             
1 55975U 23039C   26183.80942707  .00015854  00000+0  30856-3 0  9992
2 55975  97.5220 358.0038 0003724  76.9935 283.1730 15.47656911183236
TIANMU-1 06             
1 55976U 23039D   26183.81563465  .00016299  00000+0  31076-3 0  9993
2 55976  97.5226 358.6619 0003953  71.9383 288.2298 15.48245266183266
FENGYUN 3G              
1 56232U 23055A   26183.80645860  .00022887  00000+0  36147-3 0  9990
2 56232  49.9922 265.5037 0007319   1.7685 358.3307 15.53321812182438
METEOR-M2 3             
1 57166U 23091A   26183.83721928 -.00000003  00000+0  17327-4 0  9997
2 57166  98.6080 238.4948 0005013 117.9649 242.2037 14.24048063156747
TIANMU-1 07             
1 57399U 23101A   26183.86307226  .00007123  00000+0  24785-3 0  9995
2 57399  97.2579 234.1723 0004267  89.9627 270.2103 15.29991543164044
TIANMU-1 08             
1 57400U 23101B   26183.82967120  .00007107  00000+0  24723-3 0  9993
2 57400  97.2569 233.9081 0005486  77.7424 282.4431 15.29995308164035
TIANMU-1 09             
1 57401U 23101C   26183.87814623  .00007524  00000+0  26126-3 0  9990
2 57401  97.2526 233.3632 0004883  92.2270 267.9530 15.30032991164047
TIANMU-1 10             
1 57402U 23101D   26183.84607704  .00007033  00000+0  24456-3 0  9997
2 57402  97.2606 234.3984 0006336  86.3312 273.8653 15.30004579164036
FENGYUN 3F              
1 57490U 23111A   26183.82889463  .00000058  00000+0  47653-4 0  9992
2 57490  98.6831 253.5458 0001483  82.5903 277.5441 14.19941745151087
ARKTIKA-M 2             
1 58584U 23198A   26180.72239164  .00000148  00000+0  00000+0 0  9995
2 58584  63.2199 152.9641 6905877 267.3845  18.7575  2.00610643 18573
TIANMU-1 11             
1 58645U 23205A   26183.84551156  .00006111  00000+0  23211-3 0  9995
2 58645  97.3438 205.1575 0007198 317.3851  42.6829 15.27156789139917
TIANMU-1 12             
1 58646U 23205B   26183.42334862  .00006720  00000+0  25584-3 0  9994
2 58646  97.3426 204.4940 0005309 296.9950  63.0746 15.27051163139833
TIANMU-1 13             
1 58647U 23205C   26183.84991390  .00006284  00000+0  23998-3 0  9998
2 58647  97.3454 205.1894 0004974 269.0173  91.0496 15.26977879139895
TIANMU-1 14             
1 58648U 23205D   26183.83466216  .00006105  00000+0  23289-3 0  9997
2 58648  97.3391 204.3439 0005760 276.5011  83.5572 15.27022058139892
TIANMU-1 19             
1 58660U 23208A   26183.83543037  .00008940  00000+0  29354-3 0  9999
2 58660  97.4523 300.2180 0003635 251.1748 108.9099 15.31812157139728
TIANMU-1 20             
1 58661U 23208B   26183.86108209  .00009075  00000+0  28700-3 0  9995
2 58661  97.4465 300.8955 0005604 264.3956  95.6647 15.33001652139829
